NORAD_CAT_ID,OBJECT_NAME,OBJECT_TYPE,EPOCH,MEAN_MOTION,ECCENTRICITY,INCLINATION,RA_OF_ASC_NODE,ARG_OF_PERICENTER,MEAN_ANOMALY,BSTAR,MEAN_MOTION_DOT,MEAN_MOTION_DDOT,TLE_LINE0,TLE_LINE1,TLE_LINE2,SEMIMAJOR_AXIS,PERIOD,APOGEE,PERIGEE,DECAYED
51148.0,STARLINK-3359,PAYLOAD,2023-03-20 11:14:53,15.08845903,0.0001299,53.2154,140.8759,102.0604,258.0534,0.00084719,0.00013223,0.0,0 STARLINK-3359,1 51148U 22005AW  23079.46866936  .00013223  00000-0  84719-3 0  9990,2 51148  53.2154 140.8759 0001299 102.0604 258.0534 15.08845903 65875,6917.862,95.437,540.626,538.829,0.0
51148.0,STARLINK-3359,PAYLOAD,2023-03-20 14:25:39,15.08842657,0.000126,53.2156,140.2811,93.0759,267.0377,0.00038122,5.785e-05,0.0,0 STARLINK-3359,1 51148U 22005AW  23079.60114971  .00005785  00000-0  38122-3 0  9992,2 51148  53.2156 140.2811 0001260  93.0759 267.0377 15.08842657 64785,6917.872,95.437,540.609,538.866,0.0
51148.0,STARLINK-3359,PAYLOAD,2023-03-21 03:08:45,15.08825299,0.0001432,53.2149,137.9029,100.6861,259.4293,0.00016571,2.349e-05,0.0,0 STARLINK-3359,1 51148U 22005AW  23080.13107916  .00002349  00000-0  16571-3 0  9990,2 51148  53.2149 137.9029 0001432 100.6861 259.4293 15.08825299 65978,6917.925,95.438,540.781,538.8,0.0
51148.0,STARLINK-3359,PAYLOAD,2023-03-21 11:05:41,15.08824424,0.000128,53.2147,136.415,117.3881,242.7241,0.00040722,6.196e-05,0.0,0 STARLINK-3359,1 51148U 22005AW  23080.46228338  .00006196  00000-0  40722-3 0  9997,2 51148  53.2147 136.4150 0001280 117.3881 242.7241 15.08824424 64913,6917.928,95.439,540.678,538.908,0.0
51148.0,STARLINK-3359,PAYLOAD,2023-03-21 20:38:00,15.08835725,0.0001316,53.2147,134.6303,91.9218,268.1925,0.00088461,0.00013817,0.0,0 STARLINK-3359,1 51148U 22005AW  23080.85972705  .00013817  00000-0  88461-3 0  9994,2 51148  53.2147 134.6303 0001316  91.9218 268.1925 15.08835725 64977,6917.893,95.438,540.669,538.848,0.0
51148.0,STARLINK-3359,PAYLOAD,2023-03-22 10:56:28,15.08865208,0.0001326,53.2146,131.9536,88.5571,271.5573,0.001303,0.00020524,0.0,0 STARLINK-3359,1 51148U 22005AW  23081.45588137  .00020524  00000-0  13030-2 0  9995,2 51148  53.2146 131.9536 0001326  88.5571 271.5573 15.08865208 66179,6917.803,95.436,540.586,538.751,0.0
51148.0,STARLINK-3359,PAYLOAD,2023-03-22 20:28:46,15.08866432,0.0001295,53.2143,130.1703,88.7467,271.3673,0.00081709,0.00012749,0.0,0 STARLINK-3359,1 51148U 22005AW  23081.85331637  .00012749  00000-0  81709-3 0  9999,2 51148  53.2143 130.1703 0001295  88.7467 271.3673 15.08866432 66230,6917.8,95.436,540.56,538.769,0.0
51148.0,STARLINK-3359,PAYLOAD,2023-03-23 02:50:18,15.0885967,0.0001548,53.2144,128.9823,88.7731,271.3438,0.00033642,5.073e-05,0.0,0 STARLINK-3359,1 51148U 22005AW  23082.11827418  .00005073  00000-0  33642-3 0  9991,2 51148  53.2144 128.9823 0001548  88.7731 271.3438 15.08859670 66273,6917.82,95.436,540.756,538.614,0.0
51148.0,STARLINK-3359,PAYLOAD,2023-03-23 09:11:51,15.08857594,0.0001421,53.2144,127.7928,89.4094,270.706,0.00028149,4.197e-05,0.0,0 STARLINK-3359,1 51148U 22005AW  23082.38323327  .00004197  00000-0  28149-3 0  9992,2 51148  53.2144 127.7928 0001421  89.4094 270.7060 15.08857594 65205,6917.827,95.436,540.675,538.709,0.0
51148.0,STARLINK-3359,PAYLOAD,2023-03-23 20:19:32,15.08866997,0.0001404,53.2128,125.711,72.1432,287.9713,0.00063418,9.827e-05,0.0,0 STARLINK-3359,1 51148U 22005AW  23082.84690866  .00009827  00000-0  63418-3 0  9991,2 51148  53.2128 125.7110 0001404  72.1432 287.9713 15.08866997 65273,6917.798,95.436,540.634,538.692,0.0
51148.0,STARLINK-3359,PAYLOAD,2023-03-24 02:41:05,15.0885543,0.0001674,53.2131,124.5221,73.8657,286.2519,0.00047487,7.281e-05,0.0,0 STARLINK-3359,1 51148U 22005AW  23083.11186961  .00007281  00000-0  47487-3 0  9998,2 51148  53.2131 124.5221 0001674  73.8657 286.2519 15.08855430 66427,6917.833,95.437,540.856,538.54,0.0
51148.0,STARLINK-3359,PAYLOAD,2023-03-24 09:02:37,15.08878765,0.0001747,53.2143,123.3338,70.4143,289.7037,0.0010886,0.00017098,0.0,0 STARLINK-3359,1 51148U 22005AW  23083.37682427  .00017098  00000-0  10886-2 0  9993,2 51148  53.2143 123.3338 0001747  70.4143 289.7037 15.08878765 66463,6917.762,95.435,540.835,538.418,0.0
51148.0,STARLINK-3359,PAYLOAD,2023-03-24 20:10:20,15.08824027,0.0001629,53.2146,121.2509,83.4727,276.6451,-0.00071461,-0.00011638,0.0,0 STARLINK-3359,1 51148U 22005AW  23083.84051015 -.00011638  00000-0 -71461-3 0  9991,2 51148  53.2146 121.2509 0001629  83.4727 276.6451 15.08824027 66539,6917.929,95.439,540.921,538.667,0.0
51148.0,STARLINK-3359,PAYLOAD,2023-03-25 08:53:26,15.08809133,0.0001529,53.2153,118.8673,130.7852,229.3273,-0.00055687,-9.132e-05,0.0,0 STARLINK-3359,1 51148U 22005AW  23084.37044393 -.00009132  00000-0 -55687-3 0  9999,2 51148  53.2153 118.8673 0001529 130.7852 229.3273 15.08809133 66612,6917.975,95.44,540.897,538.782,0.0
51148.0,STARLINK-3359,PAYLOAD,2023-03-25 13:39:36,15.08807735,0.0001576,53.2147,117.9742,135.1289,224.9831,-0.00046997,-7.753e-05,0.0,0 STARLINK-3359,1 51148U 22005AW  23084.56916812 -.00007753  00000-0 -46997-3 0  9995,2 51148  53.2147 117.9742 0001576 135.1289 224.9831 15.08807735 65534,6917.979,95.44,540.934,538.754,0.0
51148.0,STARLINK-3359,PAYLOAD,2023-03-26 02:22:41,15.08822304,0.0001191,53.2146,115.5991,99.3434,260.7693,1.3189e-05,-7.8e-07,0.0,0 STARLINK-3359,1 51148U 22005AW  23085.09909390 -.00000078  00000-0  13189-4 0  9997,2 51148  53.2146 115.5991 0001191  99.3434 260.7693 15.08822304 66724,6917.934,95.439,540.623,538.976,0.0
51148.0,STARLINK-3359,PAYLOAD,2023-03-26 18:16:33,15.08851808,0.0001061,53.2148,112.6243,113.0078,247.1026,0.0013523,0.00021306,0.0,0 STARLINK-3359,1 51148U 22005AW  23085.76149985  .00021306  00000-0  13523-2 0  9993,2 51148  53.2148 112.6243 0001061 113.0078 247.1026 15.08851808 66829,6917.844,95.437,540.443,538.975,0.0
51148.0,STARLINK-3359,PAYLOAD,2023-03-27 10:10:23,15.08880985,0.0001006,53.2154,109.651,104.8324,255.278,0.0013177,0.00020769,0.0,0 STARLINK-3359,1 51148U 22005AW  23086.42388691  .00020769  00000-0  13177-2 0  9993,2 51148  53.2154 109.6510 0001006 104.8324 255.2780 15.08880985 65813,6917.755,95.435,540.316,538.924,0.0
51148.0,STARLINK-3359,PAYLOAD,2023-03-27 18:07:19,15.08874934,7.44e-05,53.2149,108.1649,105.031,255.0764,0.0010674,0.00016757,0.0,0 STARLINK-3359,1 51148U 22005AW  23086.75508164  .00016757  00000-0  10674-2 0  9999,2 51148  53.2149 108.1649 0000744 105.0310 255.0764 15.08874934 66975,6917.774,95.435,540.153,539.124,0.0
51148.0,STARLINK-3359,PAYLOAD,2023-03-28 05:15:00,15.08854086,0.000113,53.2154,106.0825,109.208,250.9034,0.00093233,0.00014587,0.0,0 STARLINK-3359,1 51148U 22005AW  23087.21876104  .00014587  00000-0  93233-3 0  9995,2 51148  53.2154 106.0825 0001130 109.2080 250.9034 15.08854086 67043,6917.837,95.437,540.484,538.921,0.0
51148.0,STARLINK-3359,PAYLOAD,2023-03-28 10:01:10,15.08857445,0.0001117,53.2153,105.1905,99.3298,260.7821,0.0012581,0.00019801,0.0,0 STARLINK-3359,1 51148U 22005AW  23087.41747951  .00019801  00000-0  12581-2 0  9994,2 51148  53.2153 105.1905 0001117  99.3298 260.7821 15.08857445 65960,6917.827,95.436,540.465,538.919,0.0
51148.0,STARLINK-3359,PAYLOAD,2023-03-28 17:58:06,15.08849772,0.0001739,53.2161,103.7065,89.7729,270.3462,0.0010956,0.00017196,0.0,0 STARLINK-3359,1 51148U 22005AW  23087.74868224  .00017196  00000-0  10956-2 0  9996,2 51148  53.2161 103.7065 0001739  89.7729 270.3462 15.08849772 67124,6917.851,95.437,540.919,538.513,0.0
51148.0,STARLINK-3359,PAYLOAD,2023-03-29 05:05:48,15.08838804,9.23e-05,53.2163,101.6254,109.788,250.3212,0.0009982,0.00015634,0.0,0 STARLINK-3359,1 51148U 22005AW  23088.21236269  .00015634  00000-0  99820-3 0  9990,2 51148  53.2163 101.6254 0000923 109.7880 250.3212 15.08838804 67190,6917.884,95.438,540.388,539.111,0.0
51148.0,STARLINK-3359,PAYLOAD,2023-03-29 09:51:57,15.08834467,0.0001136,53.2145,100.7319,88.7411,271.3711,0.00081843,0.00012759,0.0,0 STARLINK-3359,1 51148U 22005AW  23088.41108430  .00012759  00000-0  81843-3 0  9991,2 51148  53.2145 100.7319 0001136  88.7411 271.3711 15.08834467 66114,6917.897,95.438,540.548,538.976,0.0
51148.0,STARLINK-3359,PAYLOAD,2023-03-29 17:48:53,15.08840292,0.0001241,53.2155,99.2436,91.551,268.5624,0.00053607,8.254e-05,0.0,0 STARLINK-3359,1 51148U 22005AW  23088.74228487  .00008254  00000-0  53607-3 0  9994,2 51148  53.2155  99.2436 0001241  91.5510 268.5624 15.08840292 67278,6917.879,95.438,540.603,538.886,0.0
51148.0,STARLINK-3359,PAYLOAD,2023-03-30 08:07:21,15.08858592,0.0001141,53.2152,96.5672,92.0248,268.0875,0.00092095,0.00014407,0.0,0 STARLINK-3359,1 51148U 22005AW  23089.33844040  .00014407  00000-0  92095-3 0  9990,2 51148  53.2152  96.5672 0001141  92.0248 268.0875 15.08858592 67365,6917.824,95.436,540.478,538.899,0.0
51148.0,STARLINK-3359,PAYLOAD,2023-03-31 06:22:45,15.08856705,0.000114,53.2155,92.4035,92.2935,267.8188,0.00070354,0.00010932,0.0,0 STARLINK-3359,1 51148U 22005AW  23090.26579894  .00010932  00000-0  70354-3 0  9999,2 51148  53.2155  92.4035 0001140  92.2935 267.8188 15.08856705 67504,6917.829,95.436,540.483,538.906,0.0
51148.0,STARLINK-3359,PAYLOAD,2023-04-01 06:13:32,15.08841086,0.000128,53.2147,87.9433,87.0242,273.0897,0.0006991,0.00010856,0.0,0 STARLINK-3359,1 51148U 22005AW  23091.25940513  .00010856  00000-0  69910-3 0  9990,2 51148  53.2147  87.9433 0001280  87.0242 273.0897 15.08841086 67652,6917.877,95.437,540.628,538.857,0.0
51148.0,STARLINK-3359,PAYLOAD,2023-04-01 09:24:18,15.08844228,0.0001264,53.2152,87.3477,89.0248,271.0889,0.00069504,0.00010792,0.0,0 STARLINK-3359,1 51148U 22005AW  23091.39188462  .00010792  00000-0  69504-3 0  9990,2 51148  53.2152  87.3477 0001264  89.0248 271.0889 15.08844228 66569,6917.867,95.437,540.607,538.858,0.0
51148.0,STARLINK-3359,PAYLOAD,2023-04-02 06:04:19,15.0884572,0.0001449,53.2164,83.4815,97.8116,262.304,0.00053012,8.16e-05,0.0,0 STARLINK-3359,1 51148U 22005AW  23092.25300398  .00008160  00000-0  53012-3 0  9993,2 51148  53.2164  83.4815 0001449  97.8116 262.3040 15.08845720 67809,6917.863,95.437,540.73,538.726,0.0
